[{"OBJECT_NAME":"ONEWEB-0429","OBJECT_ID":"2021-132AH","EPOCH":"2026-03-09T17:06:28.930176","MEAN_MOTION":13.18686546,"ECCENTRICITY":0.00018486,"INCLINATION":87.9248,"RA_OF_ASC_NODE":355.2198,"ARG_OF_PERICENTER":82.9914,"MEAN_ANOMALY":277.1428,"EPHEMERIS_TYPE":0,"CLASSIFICATION_TYPE":"U","NORAD_CAT_ID":50500,"ELEMENT_SET_NO":999,"REV_AT_EPOCH":20847,"BSTAR":-6.1219241e-5,"MEAN_MOTION_DOT":-1.1e-7,"MEAN_MOTION_DDOT":0},{"OBJECT_NAME":"FENGYUN 1C DEB","OBJECT_ID":"1999-025EZT","EPOCH":"2026-03-09T13:00:39.279456","MEAN_MOTION":13.69262259,"ECCENTRICITY":0.02635874,"INCLINATION":98.7251,"RA_OF_ASC_NODE":183.9217,"ARG_OF_PERICENTER":69.7913,"MEAN_ANOMALY":350.124,"EPHEMERIS_TYPE":0,"CLASSIFICATION_TYPE":"U","NORAD_CAT_ID":46993,"ELEMENT_SET_NO":999,"REV_AT_EPOCH":61445,"BSTAR":0.00039758472,"MEAN_MOTION_DOT":4.04e-6,"MEAN_MOTION_DDOT":0}]
